COSMOS 1975             
1 19573U 88093A   24276.44299577  .00019013  00000+0  96184-3 0  9995
2 19573  82.5205 278.5851 0013795 198.2316 161.8425 15.16835429960949
SL-14 R/B               
1 19574U 88093B   24275.80391017  .00001734  00000+0  20120-3 0  9995
2 19574  82.5343 173.5083 0020378 335.3664  88.0672 14.84743309923277
SL-16 R/B               
1 19650U 88102B   24276.40962653  .00000365  00000+0  20886-3 0  9996
2 19650  70.9995 172.4328 0012077  87.2387 273.0118 14.16014967853097
INTERCOSMOS 24          
1 20261U 89080A   24275.88076714  .00001819  00000+0  52949-3 0  9997
2 20261  82.6009  84.9077 1194223  67.3238 304.9577 12.58350809600882
SL-14 R/B               
1 20262U 89080C   24276.35965041  .00001114  00000+0  33997-3 0  9991
2 20262  82.5948 149.1818 1231887 300.6627  47.8642 12.49910067594329
DELTA 1 R/B             
1 20323U 89089B   24275.77508626  .00002358  00000+0  60171-3 0  9990
2 20323  97.1161 193.9551 0069464 337.7208  22.0975 14.49819250819791
ARIANE 40 R/B           
1 20443U 90005H   24275.75489542  .00001273  00000+0  42462-3 0  9994
2 20443  98.3832 338.9787 0009750 346.0434  14.0483 14.39178665817420
DELTA 2 R/B(1)          
1 20453U 90008B   24275.43304995  .00033897  00000+0  11388-2 0  9990
2 20453  35.6171 260.6369 0189217 230.3252 128.0646 15.14433031845612
COSMOS 2058             
1 20465U 90010A   24275.87359253  .00013159  00000+0  91996-3 0  9994
2 20465  82.4894 200.6348 0011521 311.4267  48.5969 15.05151825863260
SL-14 R/B               
1 20466U 90010B   24276.44918874  .00002502  00000+0  30650-3 0  9999
2 20466  82.5045  38.5172 0019118 220.8650 139.1133 14.82705474871989
SL-14 R/B               
1 20511U 90018B   24276.30470254  .00002009  00000+0  25393-3 0  9998
2 20511  82.5254 352.0444 0016872  18.8987 341.2849 14.81319164866160
HST                     
1 20580U 90037B   24276.23886174  .00017021  00000+0  76208-3 0  9990
2 20580  28.4698 346.8989 0003286 127.8212 232.2679 15.19833761693589
SL-16 R/B               
1 20625U 90046B   24276.20500106  .00000158  00000+0  10629-3 0  9993
2 20625  71.0005 317.2245 0013789  10.0340 350.1055 14.14883301774594
COSMOS 2084             
1 20663U 90055A   24276.47132933  .00009941  00000+0  72551-3 0  9994
2 20663  62.7916 314.1165 0098575 130.1160 230.8629 15.00343885857666
SL-6 R/B(2)             
1 20666U 90055D   24275.43517974  .00006904  00000+0  54912-3 0  9991
2 20666  62.7835 231.8298 0069684 154.4070 206.0504 14.99376393859452
SL-8 R/B                
1 20775U 90078B   24276.33773265  .00029630  00000+0  11340-2 0  9992
2 20775  82.9180 353.8635 0448899 306.2336  49.8151 14.65593771731983
SL-8 R/B                
1 21088U 91006B   24275.89855333  .00000197  00000+0  18233-3 0  9995
2 21088  82.9457 199.6712 0023935  63.5625   1.7798 13.77369663691964
OKEAN-3                 
1 21397U 91039A   24275.58339846  .00007455  00000+0  60275-3 0  9993
2 21397  82.5162 122.8699 0014723 316.0534  43.9517 14.99579205786331
COSMOS 2151             
1 21422U 91042A   24276.37478712  .00009144  00000+0  79622-3 0  9993
2 21422  82.4986 227.2236 0014223  34.2602 325.9534 14.96735696805968
SL-14 R/B               
1 21423U 91042B   24276.18527221  .00002012  00000+0  25596-3 0  9991
2 21423  82.4969 350.8638 0017839 156.4340 203.7695 14.81035920796609
ERS-1                   
1 21574U 91050A   24275.90072202  .00001349  00000+0  45166-3 0  9997
2 21574  98.7863 270.0573 0031532 317.3356  42.5382 14.38755494740395
ARIANE 40 R/B           
1 21610U 91050F   24275.87368370  .00001495  00000+0  46741-3 0  9990
2 21610  98.2787 334.6820 0002663 197.9000 162.2097 14.42123004743475
INTERCOSMOS 25          
1 21819U 91086A   24275.89150421  .00002127  00000+0  41775-3 0  9993
2 21819  82.5982 266.1180 1498606 164.1043 201.2958 12.09317415433295
SL-8 R/B                
1 21876U 92008B   24275.80164591  .00000255  00000+0  24634-3 0  9990
2 21876  82.9237 297.3496 0035404 155.7847  17.4923 13.75858427637372
SL-8 R/B                
1 21938U 92020B   24275.80647278  .00000189  00000+0  18037-3 0  9997
2 21938  82.9341 182.8357 0028445 322.7431  95.3399 13.75441607629116
USA 81                  
1 21949U 92023A   24276.44357233  .00001130  00000+0  41398-3 0  9995
2 21949  85.0041  73.2705 0001071  95.0518 265.0797 14.32009945 19896
COSMOS 2219             
1 22219U 92076A   24275.75080330  .00000045  00000+0  48277-4 0  9996
2 22219  71.0613  33.2241 0020568 279.5929  80.2870 14.13916181644313
SL-16 R/B               
1 22220U 92076B   24275.89428756  .00000175  00000+0  11121-3 0  9992
2 22220  70.9998 211.6318 0012815 183.9913 233.4482 14.16705754647648
COSMOS 2221             
1 22236U 92080A   24275.88072662  .00008059  00000+0  77688-3 0  9993
2 22236  82.5044  59.5457 0015931 146.1239 214.1002 14.92704143702543
SL-16 R/B               
1 22285U 92093B   24275.69918750  .00000550  00000+0  30664-3 0  9998
2 22285  71.0239  24.1584 0003858 356.0586   4.0506 14.15304504639015
COSMOS 2228             
1 22286U 92094A   24276.38597173  .00010263  00000+0  97381-3 0  9990
2 22286  82.5230  17.0374 0018224 260.6307  99.2853 14.93319631718917
SL-16 R/B               
1 22566U 93016B   24276.18364893  .00000142  00000+0  97684-4 0  9997
2 22566  71.0070 234.6024 0009037  27.2484 332.9111 14.15171337628116
COSMOS 2242             
1 22626U 93024A   24275.84349811  .00008049  00000+0  77239-3 0  9995
2 22626  82.5208  46.4625 0016207 264.8127  95.1243 14.92885905702125
SL-16 R/B               
1 22803U 93059B   24276.09466237  .00000441  00000+0  24241-3 0  9993
2 22803  70.9919  35.1757 0019380 286.1654  73.7337 14.17077790605614
ARIANE 40 R/B           
1 22830U 93061H   24276.44808785  .00001438  00000+0  54841-3 0  9999
2 22830  98.5610 342.7674 0011320  36.9364 323.2597 14.32301029619436
COSMOS 2278             
1 23087U 94023A   24276.21037559  .00000486  00000+0  27978-3 0  9994
2 23087  71.0548 190.1662 0006506 113.0959 247.0850 14.14168892571044
SL-16 R/B               
1 23088U 94023B   24275.87016597  .00000231  00000+0  14414-3 0  9994
2 23088  70.9982  90.8679 0003645 335.7279  24.3672 14.14891091572265
SL-16 R/B               
1 23343U 94074B   24275.89771053  .00001882  00000+0  26507-3 0  9990
2 23343  97.7771 315.3100 0008000 119.4823  56.6316 14.78393854609828
SL-16 R/B               
1 23405U 94077B   24275.70216814 -.00000032  00000+0  81667-5 0  9998
2 23405  70.9855  14.7652 0004846 255.8669 104.1916 14.15432392542083
ARIANE 40+ R/B          
1 23561U 95021B   24276.20892668  .00001800  00000+0  59643-3 0  9994
2 23561  98.5173 341.9814 0005691 267.8218 157.8061 14.39082062544159
SL-16 R/B               
1 23705U 95058B   24275.89587792  .00000411  00000+0  23507-3 0  9994
2 23705  71.0219 199.8656 0013448 207.2247 152.8172 14.15378927493736
SL-16 R/B               
1 24298U 96051B   24275.87821808 -.00000058  00000+0 -48201-5 0  9992
2 24298  70.7925 203.3593 0015788 195.5407 164.5230 14.12454532447683
ORBVIEW 2 (SEASTAR)     
1 24883U 97037A   24276.13247272  .00002083  00000+0  75087-3 0  9992
2 24883  98.7916  57.7769 0002704 143.8561 216.2807 14.34776440433634
SL-16 R/B               
1 25400U 98043G   24275.85905983  .00000409  00000+0  19045-3 0  9996
2 25400  98.7528 216.7051 0011010  93.9834 266.2605 14.25822474364338
SL-16 R/B               
1 25407U 98045B   24275.87909155  .00000028  00000+0  38117-4 0  9991
2 25407  71.0116 203.0363 0005162 109.8686 250.2994 14.16049513352943
ISS (ZARYA)             
1 25544U 98067A   24276.51581177  .00028880  00000+0  51044-3 0  9998
2 25544  51.6389 143.7648 0007530  53.7899  16.6842 15.50071376475191
CZ-4B R/B               
1 25732U 99025C   24276.36715701  .00000633  00000+0  32761-3 0  9998
2 25732  98.7404 319.9198 0037992  49.6500 321.3954 14.18044439314134
OKEAN-O                 
1 25860U 99039A   24275.72935995  .00002409  00000+0  33405-3 0  9992
2 25860  98.0243 327.8832 0001064 113.2761 246.8562 14.78892224356907
SL-16 R/B               
1 25861U 99039B   24275.89642222  .00002470  00000+0  32932-3 0  9991
2 25861  98.0770 322.6168 0015874 149.9398 210.2728 14.80474888359327
DELTA 2 R/B             
1 25876U 99041E   24275.87751412  .00003099  00000+0  54468-3 0  9996
2 25876  51.7643 229.6255 0512959 245.2209 109.4534 14.09183894289093
HELIOS 1B               
1 25977U 99064A   24276.40117067  .00005342  00000+0  63348-3 0  9995
2 25977  98.2256 151.5795 0001348  37.7104 322.4204 14.84958506338826
TERRA                   
1 25994U 99068A   24276.48559330  .00003029  00000+0  63995-3 0  9997
2 25994  98.0371 336.7779 0003108  52.7739   5.6007 14.60040897318825
SL-16 R/B               
1 26070U 00006B   24275.90054979  .00000358  00000+0  20678-3 0  9995
2 26070  71.0001 119.0897 0018678 259.9953  99.9062 14.15681590274427
TITAN 4B R/B            
1 26474U 00047B   24275.82768572  .00010763  00000+0  77181-3 0  9992
2 26474  67.9923  67.6703 0051913 268.3585  91.1614 15.03540238313983
ENVISAT                 
1 27386U 02009A   24276.48978885  .00000957  00000+0  32582-3 0  9998
2 27386  98.2958 233.9171 0001316  89.4291  21.6257 14.38694492184005
IDEFIX & ARIANE 42P R/B 
1 27422U 02021B   24275.83854944  .00001405  00000+0  55716-3 0  9993
2 27422  98.5329 211.4240 0010811 293.6231  66.3816 14.30340645169114
AQUA                    
1 27424U 02022A   24276.45931132  .00006608  00000+0  13862-2 0  9995
2 27424  98.3407 226.3232 0002102  96.3603  15.2234 14.59992775192360
CZ-4B R/B               
1 27432U 02024C   24276.39836534  .00000425  00000+0  24267-3 0  9992
2 27432  98.9643 319.1849 0051212  67.9797 303.1223 14.14377266155343
MIDORI II (ADEOS-II)    
1 27597U 02056A   24275.85659349  .00001312  00000+0  54070-3 0  9997
2 27597  98.7016 222.1624 0002253  84.9758 275.1681 14.28574112135481
H-2A R/B                
1 27601U 02056E   24276.19336752  .00002034  00000+0  73740-3 0  9998
2 27601  98.2439 248.0327 0069627 282.7428  94.2711 14.33059238139096
